satname,norad_id,inclination_deg,eccentricity,mean_motion_rev_per_day,perigee_km,apogee_km,l1,l2
STARLINK-1260,45404,53.1614,0.000182,15.30197736,473.9745180166328,476.46914063050644,1 45404U 20019AW  26068.43645685  .00003834  00000+0  14152-3 0  9995,2 45404  53.1614 130.4178 0001820  93.3089 266.8120 15.30197736329939
STARLINK-1263,45405,53.1609,0.0001496,15.30197423,474.19750126693725,476.24802650829315,1 45405U 20019AX  26068.55551068 -.00001163  00000+0 -27141-4 0  9998,2 45405  53.1609 129.8934 0001496  91.1707 268.9465 15.30197423329958
STARLINK-1265,45406,53.1592,0.0001338,15.30208888,474.27155662572295,476.10550653797327,1 45406U 20019AY  26068.43963775  .00005518  00000+0  19825-3 0  9993,2 45406  53.1592 130.5081 0001338  82.5689 277.5464 15.30208888329931
STARLINK-1278,45408,53.0446,0.0002009,15.56016432,397.83802856289276,400.56116240695883,1 45408U 20019BA  26068.91668981  .00124865  00000+0  17414-2 0  9997,2 45408  53.0446 129.2990 0002009  43.9088 354.1011 15.56016432  5867
STARLINK-1296,45412,53.1594,0.0001519,15.30190046,474.2037617362512,476.28581912418394,1 45412U 20019BE  26068.56394030 -.00000014  00000+0  11663-4 0  9996,2 45412  53.1594 129.8314 0001519  88.1784 271.9390 15.30190046329953
STARLINK-1298,45413,53.0343,0.000577,15.96911136,279.15104314078235,286.8379889102762,1 45413U 20019BF  26068.91668981  .00347254  59934-4  79193-3 0  9990,2 45413  53.0343  52.6992 0005770  28.1237 283.2193 15.96911136  6008
STARLINK-1309,45414,53.0666,0.0005615,15.54780234,398.98404588272206,406.5990286300612,1 45414U 20019BG  26068.43511861  .00103315  00000+0  15125-2 0  9999,2 45414  53.0666 124.8394 0005615  27.8152 332.3157 15.54780234329994
STARLINK-1316,45415,53.1611,0.0001315,15.30197836,474.3203140940823,476.1227473876661,1 45415U 20019BH  26068.54392573 -.00000298  00000+0  20517-5 0  9990,2 45415  53.1611 129.9786 0001315  83.5347 276.5804 15.30197836329975
STARLINK-1286,45417,53.048,0.0003188,15.50880462,411.9887349014434,416.3194997178398,1 45417U 20019BK  26068.54178768  .00034513  00000+0  59203-3 0  9998,2 45417  53.0480 131.4333 0003188  60.0425 300.0899 15.50880462330204
STARLINK-1308,45419,53.0542,0.0002295,15.50558102,413.53644637837533,416.65454009277073,1 45419U 20019BM  26068.48906679  .00095173  00000+0  16251-2 0  9997,2 45419  53.0542 153.0711 0002295  20.5491 339.5610 15.50558102329644
STARLINK-1329,45531,53.05,0.0001374,15.56178822,397.7969613484547,399.6592438786529,1 45531U 20025A   26068.32030923  .00126679  00000+0  17557-2 0  9998,2 45531  53.0500  83.1377 0001374 343.8694  16.2272 15.56178822325391
STARLINK-1338,45532,53.0494,0.0005052,15.54796928,399.31729828492917,406.16869943577876,1 45532U 20025B   26068.91668981  .00158501  00000+0  22994-2 0  9995,2 45532  53.0494  83.6308 0005052   6.0845 114.7118 15.54796928  5913
STARLINK-1350,45535,53.0734,0.0002215,15.36101991,456.13510901745303,459.16336231985406,1 45535U 20025E   26068.27028762  .00014967  00000+0  42940-3 0  9995,2 45535  53.0734  35.1149 0002215  70.5154 289.6087 15.36101991326097
STARLINK-1362,45538,53.1615,0.000137,15.30206066,474.2580507443836,476.13586424873756,1 45538U 20025H   26068.46001677  .00001315  00000+0  56520-4 0  9998,2 45538  53.1615 102.0656 0001370  93.0960 267.0198 15.30206066325143
STARLINK-1368,45540,53.1591,0.0001432,15.30194629,474.2497039912805,476.21250861692533,1 45540U 20025K   26068.79613205  .00000438  00000+0  26925-4 0  9994,2 45540  53.1591 100.8341 0001432  90.6838 269.4327 15.30194629325187
STARLINK-1371,45542,53.0507,0.0002059,15.46961272,424.2204580729531,427.0222457622731,1 45542U 20025M   26068.29569855  .00089333  00000+0  17317-2 0  9996,2 45542  53.0507  91.3068 0002059 356.2978   3.8013 15.46961272325272
STARLINK-1372,45543,53.1606,0.0001195,15.30207893,474.37252968930534,476.0104752013913,1 45543U 20025N   26068.38101215  .00002506  00000+0  96690-4 0  9999,2 45543  53.1606 102.4567 0001195  90.9639 269.1499 15.30207893324222
STARLINK-1373,45544,53.0504,0.0004573,15.50709832,411.54601855245437,417.75870370214216,1 45544U 20025P   26068.43924342  .00092504  00000+0  15714-2 0  9993,2 45544  53.0504  90.1680 0004573   8.9730 351.1359 15.50709832325301
STARLINK-1327,45555,53.0478,0.0006599,15.54045957,400.45118916304546,409.40347747015676,1 45555U 20025AA  26068.91668981  .00160307  00000+0  23888-2 0  9990,2 45555  53.0478  65.5365 0006599  59.4395 336.8580 15.54045957  5909
STARLINK-1356,45564,53.0527,0.0005933,15.44776817,427.99345575535153,436.07440458108977,1 45564U 20025AK  26068.40776305  .00089774  00000+0  18744-2 0  9997,2 45564  53.0527  75.1976 0005933  32.1669 327.9698 15.44776817325509
STARLINK-1357,45565,53.0543,0.000387,15.55384524,398.4115562432544,403.65863544543754,1 45565U 20025AL  26068.20089665  .00118162  00000+0  16883-2 0  9998,2 45565  53.0543  40.3805 0003870  88.5572 271.5881 15.55384524325981
STARLINK-1361,45567,53.0509,0.0007705,15.47706221,418.1973526129359,428.6785796357335,1 45567U 20025AN  26068.81872271  .00094897  00000+0  17893-2 0  9990,2 45567  53.0509  73.2921 0007705  32.6579 327.4903 15.47706221325571
STARLINK-1363,45568,53.043,0.0008307,15.76582535,334.5507957884247,345.71252734275004,1 45568U 20025AP  26068.19024867  .00121445  00000+0  73874-3 0  9994,2 45568  53.0430  40.2129 0008307  56.0535 304.1273 15.76582535325978
STARLINK-1366,45569,53.044,0.0008507,15.75756697,336.76154609177865,348.1960017695437,1 45569U 20025AQ  26068.20531678  .00111184  00000+0  70244-3 0  9997,2 45569  53.0440  40.9129 0008507  56.1589 304.0238 15.75756697325969
STARLINK-1376,45570,53.1611,0.0001364,15.29355327,476.8031300690882,478.6734128431417,1 45570U 20025AR  26068.26181051 -.00000290  00000+0  22869-5 0  9999,2 45570  53.1611  79.7883 0001364  91.4272 268.6885 15.29355327325433
STARLINK-1320,45572,53.0501,0.0007361,15.68592163,357.9653739864789,367.889569101485,1 45572U 20025AT  26068.04213778  .00092080  00000+0  79104-3 0  9998,2 45572  53.0501 348.9244 0007361  54.9582 305.2124 15.68592163326704
STARLINK-1321,45573,53.0505,0.0004127,15.48213601,419.14548181216014,424.7582751724676,1 45573U 20025AU  26068.24198205  .00050671  00000+0  94855-3 0  9998,2 45573  53.0505  60.6317 0004127  58.4632 301.6778 15.48213601325394
STARLINK-1331,45578,53.0537,0.0004837,15.48306967,418.38943236587875,424.9675738836013,1 45578U 20025AZ  26068.83045147  .00097683  00000+0  18040-2 0  9999,2 45578  53.0537  64.4908 0004837  81.9096 278.2460 15.48306967325705
STARLINK-1333,45580,53.1603,0.0001218,15.30221934,474.3148489258874,475.9843095365877,1 45580U 20025BB  26068.30145996  .00007828  00000+0  27594-3 0  9994,2 45580  53.1603  79.6121 0001218  85.9757 274.1383 15.30221934325447
STARLINK-1335,45581,53.1576,0.0001478,15.29356205,476.7223495167218,478.74894547132044,1 45581U 20025BC  26068.31091840 -.00000616  00000+0 -90193-5 0  9991,2 45581  53.1576  76.8114 0001478  99.6562 260.4606 15.29356205325479
STARLINK-1337,45582,53.0536,0.0004946,15.58096228,389.8180974290726,396.51627152835863,1 45582U 20025BD  26068.81307407  .00070947  00000+0  92437-3 0  9999,2 45582  53.0536  61.1576 0004946  78.4518 281.7048 15.58096228325736
STARLINK-1347,45586,53.0473,0.0005961,15.5392029,401.2494276216703,409.3366329037508,1 45586U 20025BH  26068.29624717  .00103845  00000+0  15684-2 0  9993,2 45586  53.0473  31.3863 0005961  61.4804 298.6806 15.53920290326107
STARLINK-1364,45589,53.0512,0.0008015,15.49375704,413.1036548691245,423.9987460544644,1 45589U 20025BL  26068.23677603  .00098357  00000+0  17483-2 0  9992,2 45589  53.0512  65.3809 0008015  55.0152 305.1607 15.49375704325627
STARLINK-1365,45590,53.0531,0.0003807,15.45345802,427.77019524103525,432.9541865249739,1 45590U 20025BM  26068.79800418  .00083456  00000+0  17117-2 0  9995,2 45590  53.0531  93.0266 0003807  36.2597 323.8666 15.45345802325302
STARLINK-1443,45660,53.138,0.0002641,15.25158115,488.4967288168673,492.1246428845343,1 45660U 20035D   26068.38760368  .00023756  00000+0  94559-3 0  9991,2 45660  53.1380  66.3011 0002641  72.4748 287.6539 15.25158115318719
STARLINK-1446,45663,53.0258,3.46e-05,15.42870177,437.4075074029688,437.8791594020395,1 45663U 20035G   26068.09861052  .00026672  00000+0  60563-3 0  9992,2 45663  53.0258   2.1849 0000346 272.6274  87.4691 15.42870177319589
STARLINK-1448,45665,53.0509,0.0007965,15.52338234,404.4944361837697,415.3077808906701,1 45665U 20035J   26068.91668981  .00154646  00000+0  24524-2 0  9990,2 45665  53.0509  51.6409 0007965  78.8900 327.2328 15.52338234  5901
STARLINK-1451,45668,53.0538,0.0001729,15.10044289,534.8693404081432,537.2602713926226,1 45668U 20035M   26068.41602570  .00032913  00000+0  20090-2 0  9996,2 45668  53.0538  67.2968 0001729  37.5648 322.5463 15.10044289318703
STARLINK-1452,45669,53.0334,0.0008007,15.44914586,426.1764761585464,437.08163552036785,1 45669U 20035N   26068.16305549  .00091550  00000+0  19010-2 0  9997,2 45669  53.0334  24.2429 0008007  52.8149 307.3586 15.44914586319289
STARLINK-1453,45670,53.0486,0.0006822,15.5260359,404.4973839770728,413.7579278736166,1 45670U 20035P   26068.91668981  .00102315  00000+0  16208-2 0  9992,2 45670  53.0486  12.2349 0006822  54.0908  41.8823 15.52603590  5901
STARLINK-1454,45671,53.0513,0.0008586,15.51090903,407.7084165397264,419.3710838551651,1 45671U 20035Q   26068.91668981  .00142091  00000+0  23600-2 0  9992,2 45671  53.0513  51.7710 0008586  61.2429 143.1338 15.51090903  5892
STARLINK-1456,45673,53.05,0.000183,15.50004438,415.4696415282606,417.95655666452967,1 45673U 20035S   26068.23167455  .00032397  00000+0  57389-3 0  9998,2 45673  53.0500  48.5242 0001830 104.1680 255.9532 15.50004438318954
STARLINK-1457,45674,53.0483,0.0009226,15.78641655,328.09547147159265,340.48123873683016,1 45674U 20035T   26068.91668981  .00138658  00000+0  76706-3 0  9995,2 45674  53.0483  21.2953 0009226  72.6367 264.2540 15.78641655  5975
